{
  "type": "FeatureCollection",
  "features": [
    {
      "type": "Feature",
      "properties": {
        "norad_id": 66571,
        "name": "STARLINK-35836",
        "group": "last-30-days",
        "lat": -6.497035767749108,
        "lon": 150.87584863784488,
        "alt_km": 380.30017902471263,
        "timestamp": "2025-12-06T11:28:09.786955+00:00",
        "meta_object_name": "STARLINK-35836",
        "meta_object_id": "2025-268Q",
        "meta_epoch": "2025-12-05T22:00:03.000096",
        "meta_mean_motion": 15.64963219,
        "meta_eccentricity": 0.00016142,
        "meta_inclination": 42.9998,
        "meta_ra_of_asc_node": 161.2444,
        "meta_arg_of_pericenter": 280.7227,
        "meta_mean_anomaly": 146.7196,
        "meta_ephemeris_type": 0,
        "meta_classification_type": "U",
        "meta_norad_cat_id": 66571,
        "meta_element_set_no": 999,
        "meta_rev_at_epoch": 357,
        "meta_bstar": -0.021953318,
        "meta_mean_motion_dot": -0.01954181,
        "meta_mean_motion_ddot": 0,
        "tle_line1": "1 66571U 25268Q   25339.91670139 -.01954181  00000+0 -21953-1 0  9997",
        "tle_line2": "2 66571  42.9998 161.2444 0001614 280.7227 146.7196 15.64963219  3575"
      },
      "geometry": {
        "type": "Point",
        "coordinates": [
          150.87584863784488,
          -6.497035767749108
        ]
      }
    },
    {
      "type": "Feature",
      "properties": {
        "norad_id": 66572,
        "name": "STARLINK-35870",
        "group": "last-30-days",
        "lat": -5.1981486495446925,
        "lon": 152.28886289304117,
        "alt_km": 380.2293418807476,
        "timestamp": "2025-12-06T11:28:09.786975+00:00",
        "meta_object_name": "STARLINK-35870",
        "meta_object_id": "2025-268R",
        "meta_epoch": "2025-12-05T22:00:03.000096",
        "meta_mean_motion": 15.64965446,
        "meta_eccentricity": 0.00016459,
        "meta_inclination": 42.9998,
        "meta_ra_of_asc_node": 161.2402,
        "meta_arg_of_pericenter": 279.3103,
        "meta_mean_anomaly": 150.0491,
        "meta_ephemeris_type": 0,
        "meta_classification_type": "U",
        "meta_norad_cat_id": 66572,
        "meta_element_set_no": 999,
        "meta_rev_at_epoch": 357,
        "meta_bstar": -0.02200053,
        "meta_mean_motion_dot": -0.01958063,
        "meta_mean_motion_ddot": 0,
        "tle_line1": "1 66572U 25268R   25339.91670139 -.01958063  00000+0 -22001-1 0  9996",
        "tle_line2": "2 66572  42.9998 161.2402 0001645 279.3103 150.0491 15.64965446  3571"
      },
      "geometry": {
        "type": "Point",
        "coordinates": [
          152.28886289304117,
          -5.1981486495446925
        ]
      }
    },
    {
      "type": "Feature",
      "properties": {
        "norad_id": 66573,
        "name": "STARLINK-35650",
        "group": "last-30-days",
        "lat": -3.8949378446344243,
        "lon": 153.695634957487,
        "alt_km": 380.08298038690737,
        "timestamp": "2025-12-06T11:28:09.786997+00:00",
        "meta_object_name": "STARLINK-35650",
        "meta_object_id": "2025-268S",
        "meta_epoch": "2025-12-05T22:00:03.000096",
        "meta_mean_motion": 15.64962371,
        "meta_eccentricity": 0.00016494,
        "meta_inclination": 43,
        "meta_ra_of_asc_node": 161.2343,
        "meta_arg_of_pericenter": 279.9149,
        "meta_mean_anomaly": 151.3607,
        "meta_ephemeris_type": 0,
        "meta_classification_type": "U",
        "meta_norad_cat_id": 66573,
        "meta_element_set_no": 999,
        "meta_rev_at_epoch": 357,
        "meta_bstar": -0.02192311,
        "meta_mean_motion_dot": -0.01951778,
        "meta_mean_motion_ddot": 0,
        "tle_line1": "1 66573U 25268S   25339.91670139 -.01951778  00000+0 -21923-1 0  9995",
        "tle_line2": "2 66573  43.0000 161.2343 0001649 279.9149 151.3607 15.64962371  3579"
      },
      "geometry": {
        "type": "Point",
        "coordinates": [
          153.695634957487,
          -3.8949378446344243
        ]
      }
    },
    {
      "type": "Feature",
      "properties": {
        "norad_id": 66574,
        "name": "STARLINK-35812",
        "group": "last-30-days",
        "lat": -2.5901530118592992,
        "lon": 155.0981625096662,
        "alt_km": 379.95033074368075,
        "timestamp": "2025-12-06T11:28:09.787016+00:00",
        "meta_object_name": "STARLINK-35812",
        "meta_object_id": "2025-268T",
        "meta_epoch": "2025-12-05T22:00:03.000096",
        "meta_mean_motion": 15.64956622,
        "meta_eccentricity": 0.00016973,
        "meta_inclination": 43,
        "meta_ra_of_asc_node": 161.2294,
        "meta_arg_of_pericenter": 279.9675,
        "meta_mean_anomaly": 153.2292,
        "meta_ephemeris_type": 0,
        "meta_classification_type": "U",
        "meta_norad_cat_id": 66574,
        "meta_element_set_no": 999,
        "meta_rev_at_epoch": 357,
        "meta_bstar": -0.021860484,
        "meta_mean_motion_dot": -0.01946499,
        "meta_mean_motion_ddot": 0,
        "tle_line1": "1 66574U 25268T   25339.91670139 -.01946499  00000+0 -21860-1 0  9990",
        "tle_line2": "2 66574  43.0000 161.2294 0001697 279.9675 153.2292 15.64956622  3575"
      },
      "geometry": {
        "type": "Point",
        "coordinates": [
          155.0981625096662,
          -2.5901530118592992
        ]
      }
    },
    {
      "type": "Feature",
      "properties": {
        "norad_id": 66575,
        "name": "STARLINK-35810",
        "group": "last-30-days",
        "lat": -1.2842603555933771,
        "lon": 156.49748498243943,
        "alt_km": 379.8570789464684,
        "timestamp": "2025-12-06T11:28:09.787033+00:00",
        "meta_object_name": "STARLINK-35810",
        "meta_object_id": "2025-268U",
        "meta_epoch": "2025-12-05T22:00:03.000096",
        "meta_mean_motion": 15.6495971,
        "meta_eccentricity": 0.00016517,
        "meta_inclination": 42.9999,
        "meta_ra_of_asc_node": 161.2247,
        "meta_arg_of_pericenter": 279.5515,
        "meta_mean_anomaly": 155.5604,
        "meta_ephemeris_type": 0,
        "meta_classification_type": "U",
        "meta_norad_cat_id": 66575,
        "meta_element_set_no": 999,
        "meta_rev_at_epoch": 357,
        "meta_bstar": -0.021898576,
        "meta_mean_motion_dot": -0.0194967,
        "meta_mean_motion_ddot": 0,
        "tle_line1": "1 66575U 25268U   25339.91670139 -.01949670  00000+0 -21899-1 0  9997",
        "tle_line2": "2 66575  42.9999 161.2247 0001651 279.5515 155.5604 15.64959710  3571"
      },
      "geometry": {
        "type": "Point",
        "coordinates": [
          156.49748498243943,
          -1.2842603555933771
        ]
      }
    },
    {
      "type": "Feature",
      "properties": {
        "norad_id": 66576,
        "name": "STARLINK-35814",
        "group": "last-30-days",
        "lat": 0.022912466846637992,
        "lon": 157.89613482809722,
        "alt_km": 379.7411302841774,
        "timestamp": "2025-12-06T11:28:09.787049+00:00",
        "meta_object_name": "STARLINK-35814",
        "meta_object_id": "2025-268V",
        "meta_epoch": "2025-12-05T22:00:03.000096",
        "meta_mean_motion": 15.64959289,
        "meta_eccentricity": 0.00016135,
        "meta_inclination": 42.9999,
        "meta_ra_of_asc_node": 161.2202,
        "meta_arg_of_pericenter": 279.3649,
        "meta_mean_anomaly": 157.6631,
        "meta_ephemeris_type": 0,
        "meta_classification_type": "U",
        "meta_norad_cat_id": 66576,
        "meta_element_set_no": 999,
        "meta_rev_at_epoch": 357,
        "meta_bstar": -0.021877234,
        "meta_mean_motion_dot": -0.01947936,
        "meta_mean_motion_ddot": 0,
        "tle_line1": "1 66576U 25268V   25339.91670139 -.01947936  00000+0 -21877-1 0  9997",
        "tle_line2": "2 66576  42.9999 161.2202 0001613 279.3649 157.6631 15.64959289  3571"
      },
      "geometry": {
        "type": "Point",
        "coordinates": [
          157.89613482809722,
          0.022912466846637992
        ]
      }
    },
    {
      "type": "Feature",
      "properties": {
        "norad_id": 66577,
        "name": "STARLINK-35815",
        "group": "last-30-days",
        "lat": 1.3301433673451737,
        "lon": 159.29449520361496,
        "alt_km": 379.5467754688916,
        "timestamp": "2025-12-06T11:28:09.787065+00:00",
        "meta_object_name": "STARLINK-35815",
        "meta_object_id": "2025-268W",
        "meta_epoch": "2025-12-05T22:00:03.000096",
        "meta_mean_motion": 15.64957356,
        "meta_eccentricity": 0.0001671,
        "meta_inclination": 42.9999,
        "meta_ra_of_asc_node": 161.2153,
        "meta_arg_of_pericenter": 281.3132,
        "meta_mean_anomaly": 157.6332,
        "meta_ephemeris_type": 0,
        "meta_classification_type": "U",
        "meta_norad_cat_id": 66577,
        "meta_element_set_no": 999,
        "meta_rev_at_epoch": 357,
        "meta_bstar": -0.021857336,
        "meta_mean_motion_dot": -0.01946283,
        "meta_mean_motion_ddot": 0,
        "tle_line1": "1 66577U 25268W   25339.91670139 -.01946283  00000+0 -21857-1 0  9990",
        "tle_line2": "2 66577  42.9999 161.2153 0001671 281.3132 157.6332 15.64957356  3572"
      },
      "geometry": {
        "type": "Point",
        "coordinates": [
          159.29449520361496,
          1.3301433673451737
        ]
      }
    }
  ]
}